{
  "norad_id": 54077,
  "name": "STARLINK-5171",
  "history": [
    {
      "epoch": "2026-03-28T19:22:54.808320Z",
      "apogee_km": 540.5429042656606,
      "perigee_km": 538.9421069480622,
      "latitude_deg": 2.385080270949438e-05,
      "longitude_deg": 116.98112785606298,
      "height_km": 540.6482512206893,
      "semi_major_axis_km": 6917.879505606861,
      "eccentricity": 0.0001157,
      "inclination_deg": 53.2172,
      "raan_deg": 233.9322,
      "arg_perigee_deg": 90.7005,
      "mean_anomaly_deg": 269.412,
      "mean_motion_rev_day": 15.08840289
    },
    {
      "epoch": "2026-03-30T12:42:57.970368Z",
      "apogee_km": 540.6520089410142,
      "perigee_km": 538.9331801539529,
      "latitude_deg": -2.7685120027189434e-05,
      "longitude_deg": -152.4626203712917,
      "height_km": 540.7270484511112,
      "semi_major_axis_km": 6917.929594547483,
      "eccentricity": 0.00012423,
      "inclination_deg": 53.2171,
      "raan_deg": 226.1992,
      "arg_perigee_deg": 92.5755,
      "mean_anomaly_deg": 267.5379,
      "mean_motion_rev_day": 15.08823902
    }
  ]
}